ONEWEB-0697             
1 61603U 24188K   25034.25001157 -.00806146  00000+0 -29091+0 0  9990
2 61603  86.8692 125.9240 0000548 179.3050 204.2351 14.36822840 16880
ONEWEB-0698             
1 61604U 24188L   25034.58335648 -.00642665  00000+0 -22624+0 0  9991
2 61604  86.8810 125.8204 0004010 191.6675 318.3908 14.37868383 16709
ONEWEB-0699             
1 61605U 24188M   25033.74564362 -.00000045  00000+0 -13688-3 0  9990
2 61605  87.9417 135.7874 0000967  72.2393 287.8847 13.23019869 17889
ONEWEB-0700             
1 61606U 24188N   25033.32107844  .00000077  00000+0  15307-3 0  9996
2 61606  87.9419 135.8821 0001981  52.5435 307.5879 13.22977602 17826
ONEWEB-0701             
1 61607U 24188P   25034.29817305  .00000034  00000+0  50650-4 0  9998
2 61607  87.9421 135.6806 0001601  44.9763 315.1501 13.22920124 16282
ONEWEB-0702             
1 61608U 24188Q   25034.58335648 -.00679732  00000+0 -23447+0 0  9994
2 61608  86.8816 125.8394 0004761 181.8165   1.0899 14.38588119 16743
ONEWEB-0704             
1 61609U 24188R   25034.19478113 -.00000008  00000+0 -49121-4 0  9993
2 61609  87.8657 135.6544 0001093  76.9124 283.2132 13.23275077 16077
ONEWEB-0705             
1 61610U 24188S   25034.58335648  .00025431  00000+0  60094-1 0  9997
2 61610  87.9452 135.6319 0002558 108.1703 237.2089 13.23241275 16287
